IRIDIUM 63              
1 25286U 98021B   25339.17494813  .00000682  00000+0  22489-3 0  9995
2 25286  86.3990  10.3892 0002406  92.0852 268.0621 14.36726834448398
IRIDIUM 69              
1 25319U 98026A   25339.21646210  .00001026  00000+0  31186-3 0  9999
2 25319  86.3985  23.1192 0003365 138.8696 221.2758 14.41205798447695
IRIDIUM 71              
1 25320U 98026B   25339.20377213  .00000549  00000+0  16365-3 0  9995
2 25320  86.3983  17.7979 0001096 163.8310 196.2924 14.41311413448225
IRIDIUM 73              
1 25344U 98032C   25339.26704719  .00001206  00000+0  29384-3 0  9995
2 25344  86.4403 334.1658 0002810 100.0037 260.1486 14.51973680455383
IRIDIUM 82              
1 25467U 98051A   25339.14048688  .00067931  00000+0  12912-2 0  9990
2 25467  86.3619  24.9326 0062945   4.8892 355.2965 15.45797752450222
